[
  {
    "OBJECT_NAME": "STARLINK-2412",
    "OBJECT_ID": "21027C",
    "EPOCH": "2025-11-11T06:31:04.022112",
    "MEAN_MOTION": 15.06402651,
    "ECCENTRICITY": 0.0002025,
    "INCLINATION": 53.0546,
    "RA_OF_ASC_NODE": 343.219,
    "ARG_OF_PERICENTER": 99.813,
    "MEAN_ANOMALY": 260.3088,
    "EPHEMERIS_TYPE": 0,
    "CLASSIFICATION_TYPE": "U",
    "NORAD_CAT_ID": 48094,
    "ELEMENT_SET_NO": 999,
    "REV_AT_EPOCH": 25457,
    "BSTAR": 9.8542e-05,
    "MEAN_MOTION_DOT": 1.186e-05,
    "MEAN_MOTION_DDOT": 0.0,
    "TLE_LINE1": "1 48094U 21027C   25315.27157433  .00001186  00000+0  98542-4 0  9992",
    "TLE_LINE2": "2 48094  53.0546 343.2190 0002025  99.8130 260.3088 15.06402651254571",
    "COMMENT": "Grouped by shell and plane from TLE"
  },
  {
    "OBJECT_NAME": "STARLINK-2414",
    "OBJECT_ID": "21027D",
    "EPOCH": "2025-11-11T06:41:40.920576",
    "MEAN_MOTION": 15.06402625,
    "ECCENTRICITY": 0.0001929,
    "INCLINATION": 53.0545,
    "RA_OF_ASC_NODE": 343.1842,
    "ARG_OF_PERICENTER": 88.1344,
    "MEAN_ANOMALY": 271.9866,
    "EPHEMERIS_TYPE": 0,
    "CLASSIFICATION_TYPE": "U",
    "NORAD_CAT_ID": 48095,
    "ELEMENT_SET_NO": 999,
    "REV_AT_EPOCH": 25458,
    "BSTAR": 0.0,
    "MEAN_MOTION_DOT": -1.43e-05,
    "MEAN_MOTION_DDOT": 0.0,
    "TLE_LINE1": "1 48095U 21027D   25315.27894584 -.00001430  00000+0 -77122-4 0  9993",
    "TLE_LINE2": "2 48095  53.0545 343.1842 0001929  88.1344 271.9866 15.06402625254588",
    "COMMENT": "Grouped by shell and plane from TLE"
  },
  {
    "OBJECT_NAME": "STARLINK-2417",
    "OBJECT_ID": "21027E",
    "EPOCH": "2025-11-11T06:04:32.983392",
    "MEAN_MOTION": 15.06411293,
    "ECCENTRICITY": 0.0001412,
    "INCLINATION": 53.0547,
    "RA_OF_ASC_NODE": 343.2994,
    "ARG_OF_PERICENTER": 97.2984,
    "MEAN_ANOMALY": 262.8165,
    "EPHEMERIS_TYPE": 0,
    "CLASSIFICATION_TYPE": "U",
    "NORAD_CAT_ID": 48096,
    "ELEMENT_SET_NO": 999,
    "REV_AT_EPOCH": 25456,
    "BSTAR": 0.00064983,
    "MEAN_MOTION_DOT": 9.414e-05,
    "MEAN_MOTION_DDOT": 0.0,
    "TLE_LINE1": "1 48096U 21027E   25315.25315953  .00009414  00000+0  64983-3 0  9998",
    "TLE_LINE2": "2 48096  53.0547 343.2994 0001412  97.2984 262.8165 15.06411293254568",
    "COMMENT": "Grouped by shell and plane from TLE"
  },
  {
    "OBJECT_NAME": "STARLINK-2428",
    "OBJECT_ID": "21027H",
    "EPOCH": "2025-11-11T06:20:26.749536",
    "MEAN_MOTION": 15.06398329,
    "ECCENTRICITY": 0.0001851,
    "INCLINATION": 53.0544,
    "RA_OF_ASC_NODE": 343.2465,
    "ARG_OF_PERICENTER": 87.3194,
    "MEAN_ANOMALY": 272.8007,
    "EPHEMERIS_TYPE": 0,
    "CLASSIFICATION_TYPE": "U",
    "NORAD_CAT_ID": 48099,
    "ELEMENT_SET_NO": 999,
    "REV_AT_EPOCH": 25456,
    "BSTAR": 8.874000000000001e-05,
    "MEAN_MOTION_DOT": 1.04e-05,
    "MEAN_MOTION_DDOT": 0.0,
    "TLE_LINE1": "1 48099U 21027H   25315.26419849  .00001040  00000+0  88740-4 0  9996",
    "TLE_LINE2": "2 48099  53.0544 343.2465 0001851  87.3194 272.8007 15.06398329254561",
    "COMMENT": "Grouped by shell and plane from TLE"
  },
  {
    "OBJECT_NAME": "STARLINK-2449",
    "OBJECT_ID": "21027W",
    "EPOCH": "2025-11-11T06:11:51.227520",
    "MEAN_MOTION": 15.06403285,
    "ECCENTRICITY": 0.0001701,
    "INCLINATION": 53.0573,
    "RA_OF_ASC_NODE": 348.4412,
    "ARG_OF_PERICENTER": 105.9532,
    "MEAN_ANOMALY": 254.1644,
    "EPHEMERIS_TYPE": 0,
    "CLASSIFICATION_TYPE": "U",
    "NORAD_CAT_ID": 48112,
    "ELEMENT_SET_NO": 999,
    "REV_AT_EPOCH": 25449,
    "BSTAR": 8.7083e-05,
    "MEAN_MOTION_DOT": 1.016e-05,
    "MEAN_MOTION_DDOT": 0.0,
    "TLE_LINE1": "1 48112U 21027W   25315.25823180  .00001016  00000+0  87083-4 0  9990",
    "TLE_LINE2": "2 48112  53.0573 348.4412 0001701 105.9532 254.1644 15.06403285254495",
    "COMMENT": "Grouped by shell and plane from TLE"
  },
  {
    "OBJECT_NAME": "STARLINK-2450",
    "OBJECT_ID": "21027X",
    "EPOCH": "2025-11-11T06:15:08.240256",
    "MEAN_MOTION": 15.06390073,
    "ECCENTRICITY": 0.0001604,
    "INCLINATION": 53.0547,
    "RA_OF_ASC_NODE": 343.2668,
    "ARG_OF_PERICENTER": 86.1551,
    "MEAN_ANOMALY": 273.9621,
    "EPHEMERIS_TYPE": 0,
    "CLASSIFICATION_TYPE": "U",
    "NORAD_CAT_ID": 48113,
    "ELEMENT_SET_NO": 999,
    "REV_AT_EPOCH": 25455,
    "BSTAR": 8.2775e-05,
    "MEAN_MOTION_DOT": 9.51e-06,
    "MEAN_MOTION_DDOT": 0.0,
    "TLE_LINE1": "1 48113U 21027X   25315.26051204  .00000951  00000+0  82775-4 0  9992",
    "TLE_LINE2": "2 48113  53.0547 343.2668 0001604  86.1551 273.9621 15.06390073254557",
    "COMMENT": "Grouped by shell and plane from TLE"
  },
  {
    "OBJECT_NAME": "STARLINK-2454",
    "OBJECT_ID": "21027AA",
    "EPOCH": "2025-11-11T06:09:50.373792",
    "MEAN_MOTION": 15.06383001,
    "ECCENTRICITY": 0.0001571,
    "INCLINATION": 53.055,
    "RA_OF_ASC_NODE": 343.2836,
    "ARG_OF_PERICENTER": 96.9694,
    "MEAN_ANOMALY": 263.1474,
    "EPHEMERIS_TYPE": 0,
    "CLASSIFICATION_TYPE": "U",
    "NORAD_CAT_ID": 48116,
    "ELEMENT_SET_NO": 999,
    "REV_AT_EPOCH": 25456,
    "BSTAR": 0.0009016100000000001,
    "MEAN_MOTION_DOT": 0.00013167,
    "MEAN_MOTION_DDOT": 0.0,
    "TLE_LINE1": "1 48116U 21027AA  25315.25683303  .00013167  00000+0  90161-3 0  9995",
    "TLE_LINE2": "2 48116  53.0550 343.2836 0001571  96.9694 263.1474 15.06383001254562",
    "COMMENT": "Grouped by shell and plane from TLE"
  },
  {
    "OBJECT_NAME": "STARLINK-2460",
    "OBJECT_ID": "21027AE",
    "EPOCH": "2025-11-11T07:24:08.129088",
    "MEAN_MOTION": 15.06405551,
    "ECCENTRICITY": 0.0001683,
    "INCLINATION": 53.0559,
    "RA_OF_ASC_NODE": 343.0499,
    "ARG_OF_PERICENTER": 108.9142,
    "MEAN_ANOMALY": 251.203,
    "EPHEMERIS_TYPE": 0,
    "CLASSIFICATION_TYPE": "U",
    "NORAD_CAT_ID": 48120,
    "ELEMENT_SET_NO": 999,
    "REV_AT_EPOCH": 25458,
    "BSTAR": 0.00027695,
    "MEAN_MOTION_DOT": 3.847e-05,
    "MEAN_MOTION_DDOT": 0.0,
    "TLE_LINE1": "1 48120U 21027AE  25315.30842742  .00003847  00000+0  27695-3 0  9996",
    "TLE_LINE2": "2 48120  53.0559 343.0499 0001683 108.9142 251.2030 15.06405551254588",
    "COMMENT": "Grouped by shell and plane from TLE"
  },
  {
    "OBJECT_NAME": "STARLINK-2466",
    "OBJECT_ID": "21027AK",
    "EPOCH": "2025-11-11T07:13:33.630816",
    "MEAN_MOTION": 15.06406231,
    "ECCENTRICITY": 0.000139,
    "INCLINATION": 53.0549,
    "RA_OF_ASC_NODE": 343.3249,
    "ARG_OF_PERICENTER": 94.7104,
    "MEAN_ANOMALY": 265.4043,
    "EPHEMERIS_TYPE": 0,
    "CLASSIFICATION_TYPE": "U",
    "NORAD_CAT_ID": 48125,
    "ELEMENT_SET_NO": 999,
    "REV_AT_EPOCH": 25457,
    "BSTAR": 0.00020588,
    "MEAN_MOTION_DOT": 2.787e-05,
    "MEAN_MOTION_DDOT": 0.0,
    "TLE_LINE1": "1 48125U 21027AK  25315.30108369  .00002787  00000+0  20588-3 0  9997",
    "TLE_LINE2": "2 48125  53.0549 343.3249 0001390  94.7104 265.4043 15.06406231254579",
    "COMMENT": "Grouped by shell and plane from TLE"
  },
  {
    "OBJECT_NAME": "STARLINK-2468",
    "OBJECT_ID": "21027AM",
    "EPOCH": "2025-11-11T07:29:27.212064",
    "MEAN_MOTION": 15.06403101,
    "ECCENTRICITY": 0.0001369,
    "INCLINATION": 53.0546,
    "RA_OF_ASC_NODE": 343.0346,
    "ARG_OF_PERICENTER": 89.4224,
    "MEAN_ANOMALY": 270.6922,
    "EPHEMERIS_TYPE": 0,
    "CLASSIFICATION_TYPE": "U",
    "NORAD_CAT_ID": 48127,
    "ELEMENT_SET_NO": 999,
    "REV_AT_EPOCH": 25457,
    "BSTAR": 0.00027348,
    "MEAN_MOTION_DOT": 3.795e-05,
    "MEAN_MOTION_DDOT": 0.0,
    "TLE_LINE1": "1 48127U 21027AM  25315.31212051  .00003795  00000+0  27348-3 0  9995",
    "TLE_LINE2": "2 48127  53.0546 343.0346 0001369  89.4224 270.6922 15.06403101254570",
    "COMMENT": "Grouped by shell and plane from TLE"
  },
  {
    "OBJECT_NAME": "STARLINK-2471",
    "OBJECT_ID": "21027AP",
    "EPOCH": "2025-11-11T07:18:50.094144",
    "MEAN_MOTION": 15.06402499,
    "ECCENTRICITY": 0.000137,
    "INCLINATION": 53.0545,
    "RA_OF_ASC_NODE": 343.0676,
    "ARG_OF_PERICENTER": 94.3122,
    "MEAN_ANOMALY": 265.8023,
    "EPHEMERIS_TYPE": 0,
    "CLASSIFICATION_TYPE": "U",
    "NORAD_CAT_ID": 48129,
    "ELEMENT_SET_NO": 999,
    "REV_AT_EPOCH": 25457,
    "BSTAR": 4.5115000000000004e-05,
    "MEAN_MOTION_DOT": 3.91e-06,
    "MEAN_MOTION_DDOT": 0.0,
    "TLE_LINE1": "1 48129U 21027AP  25315.30474646  .00000391  00000+0  45115-4 0  9998",
    "TLE_LINE2": "2 48129  53.0545 343.0676 0001370  94.3122 265.8023 15.06402499254578",
    "COMMENT": "Grouped by shell and plane from TLE"
  },
  {
    "OBJECT_NAME": "STARLINK-2472",
    "OBJECT_ID": "21027AQ",
    "EPOCH": "2025-11-11T06:43:46.922880",
    "MEAN_MOTION": 15.06380249,
    "ECCENTRICITY": 0.0001233,
    "INCLINATION": 53.0549,
    "RA_OF_ASC_NODE": 348.7283,
    "ARG_OF_PERICENTER": 75.772,
    "MEAN_ANOMALY": 284.3406,
    "EPHEMERIS_TYPE": 0,
    "CLASSIFICATION_TYPE": "U",
    "NORAD_CAT_ID": 48130,
    "ELEMENT_SET_NO": 999,
    "REV_AT_EPOCH": 25449,
    "BSTAR": 0.0,
    "MEAN_MOTION_DOT": -6.2e-05,
    "MEAN_MOTION_DDOT": 0.0,
    "TLE_LINE1": "1 48130U 21027AQ  25315.28040420 -.00006200  00000+0 -39794-3 0  9998",
    "TLE_LINE2": "2 48130  53.0549 348.7283 0001233  75.7720 284.3406 15.06380249254495",
    "COMMENT": "Grouped by shell and plane from TLE"
  },
  {
    "OBJECT_NAME": "STARLINK-2474",
    "OBJECT_ID": "21027AS",
    "EPOCH": "2025-11-11T07:02:54.573216",
    "MEAN_MOTION": 15.06405332,
    "ECCENTRICITY": 0.000166,
    "INCLINATION": 53.0551,
    "RA_OF_ASC_NODE": 343.1175,
    "ARG_OF_PERICENTER": 97.5587,
    "MEAN_ANOMALY": 262.5591,
    "EPHEMERIS_TYPE": 0,
    "CLASSIFICATION_TYPE": "U",
    "NORAD_CAT_ID": 48132,
    "ELEMENT_SET_NO": 999,
    "REV_AT_EPOCH": 25456,
    "BSTAR": 3.0832e-05,
    "MEAN_MOTION_DOT": 1.78e-06,
    "MEAN_MOTION_DDOT": 0.0,
    "TLE_LINE1": "1 48132U 21027AS  25315.29368719  .00000178  00000+0  30832-4 0  9996",
    "TLE_LINE2": "2 48132  53.0551 343.1175 0001660  97.5587 262.5591 15.06405332254568",
    "COMMENT": "Grouped by shell and plane from TLE"
  }
]